STARLINK-37146          
1 68555U 26070P   26110.25002315 -.00006214  00000+0 -27926-4 0  9996
2 68555  53.1578 176.0052 0001013  81.3278  76.4269 15.80904368  4063
STARLINK-37144          
1 68556U 26070Q   26110.25002315 -.00011323  00000+0 -53798-4 0  9990
2 68556  53.1579 175.9700 0001188  99.9345  74.9071 15.80912816  4067
STARLINK-37210          
1 68557U 26070R   26110.25002315 -.00003114  00000+0 -12228-4 0  9993
2 68557  53.1579 175.9792 0000873  95.7381  74.8343 15.80900571  4069
STARLINK-37227          
1 68558U 26070S   26110.25002315 -.00041980  00000+0 -20981-3 0  9991
2 68558  53.1581 175.9610 0001139  66.5379 112.5803 15.80911113  4066
STARLINK-37294          
1 68559U 26070T   26110.25002315  .00012915  00000+0  68800-4 0  9999
2 68559  53.1580 175.9526 0001715  94.4245  88.9625 15.80898553  4064
STARLINK-37291          
1 68560U 26070U   26110.25002315  .00017673  00000+0  92801-4 0  9995
2 68560  53.1580 175.9436 0001200  96.6300  91.0261 15.80895751  4069
STARLINK-37114          
1 68561U 26070V   26110.25002315  .00001089  00000+0  90483-5 0  9995
2 68561  53.1580 175.9348 0001224 114.1747  77.7583 15.80899994  4060
STARLINK-37233          
1 68562U 26070W   26110.25002315 -.00036435  00000+0 -18146-3 0  9995
2 68562  53.1583 175.9169 0001604 148.0475  52.4306 15.80914543  4062
STARLINK-36238          
1 68563U 26070X   26110.25002315  .00000610  00000+0  66302-5 0  9999
2 68563  53.1581 175.9258 0001560  96.7986  99.4042 15.80903378  4014
STARLINK-37008          
1 68564U 26070Y   26110.25002315 -.00035413  00000+0 -17622-3 0  9990
2 68564  53.1581 175.9082 0001550 149.6191  55.1279 15.80918933  4064
STARLINK-37161          
1 68565U 26070Z   26110.25002315  .00167785  00000+0  83775-3 0  9999
2 68565  53.1581 175.8992 0001224 108.8924 100.0741 15.80858747  4063
STARLINK-37212          
1 68566U 26070AA  26110.25002315 -.00014715  00000+0 -71023-4 0  9990
2 68566  53.1581 175.8900 0001348 120.2303  93.0624 15.80906673  4062
STARLINK-37261          
1 68567U 26070AB  26110.25002315 -.00001994  00000+0 -65479-5 0  9995
2 68567  53.1582 175.8812 0001354  65.8468 151.7142 15.80904908  4065
STARLINK-37283          
1 68568U 26070AC  26108.00004630  .00066916  00000+0  34049-3 0  9998
2 68568  53.1591 187.5762 0001046  78.4908  84.1358 15.80838078  3709
STARLINK-37256          
1 68569U 26070AD  26108.00004630  .00029250  00000+0  15135-3 0  9994
2 68569  53.1589 187.5848 0001035  93.2190  65.1294 15.80856338  3705
STARLINK-37228          
1 68570U 26070AE  26108.00004630  .00080668  00000+0  40917-3 0  9992
2 68570  53.1589 187.5675 0001104  76.1108  90.7864 15.80833478  3708
