[{"OBJECT_NAME":"STARLINK-37146","OBJECT_ID":"2026-070P","EPOCH":"2026-04-20T06:00:02.000160","MEAN_MOTION":15.80904368,"ECCENTRICITY":0.00010138,"INCLINATION":53.1578,"RA_OF_ASC_NODE":176.0052,"ARG_OF_PERICENTER":81.3278,"MEAN_ANOMALY":76.4269,"EPHEMERIS_TYPE":0,"CLASSIFICATION_TYPE":"U","NORAD_CAT_ID":68555,"ELEMENT_SET_NO":999,"REV_AT_EPOCH":406,"BSTAR":-2.7925543e-5,"MEAN_MOTION_DOT":-6.214e-5,"MEAN_MOTION_DDOT":0},{"OBJECT_NAME":"STARLINK-37144","OBJECT_ID":"2026-070Q","EPOCH":"2026-04-20T06:00:02.000160","MEAN_MOTION":15.80912816,"ECCENTRICITY":0.00011886,"INCLINATION":53.1579,"RA_OF_ASC_NODE":175.97,"ARG_OF_PERICENTER":99.9345,"MEAN_ANOMALY":74.9071,"EPHEMERIS_TYPE":0,"CLASSIFICATION_TYPE":"U","NORAD_CAT_ID":68556,"ELEMENT_SET_NO":999,"REV_AT_EPOCH":406,"BSTAR":-5.379804e-5,"MEAN_MOTION_DOT":-0.00011323,"MEAN_MOTION_DDOT":0},{"OBJECT_NAME":"STARLINK-37210","OBJECT_ID":"2026-070R","EPOCH":"2026-04-20T06:00:02.000160","MEAN_MOTION":15.80900571,"ECCENTRICITY":8.732e-5,"INCLINATION":53.1579,"RA_OF_ASC_NODE":175.9792,"ARG_OF_PERICENTER":95.7381,"MEAN_ANOMALY":74.8343,"EPHEMERIS_TYPE":0,"CLASSIFICATION_TYPE":"U","NORAD_CAT_ID":68557,"ELEMENT_SET_NO":999,"REV_AT_EPOCH":406,"BSTAR":-1.222797e-5,"MEAN_MOTION_DOT":-3.114e-5,"MEAN_MOTION_DDOT":0},{"OBJECT_NAME":"STARLINK-37227","OBJECT_ID":"2026-070S","EPOCH":"2026-04-20T06:00:02.000160","MEAN_MOTION":15.80911113,"ECCENTRICITY":0.00011399,"INCLINATION":53.1581,"RA_OF_ASC_NODE":175.961,"ARG_OF_PERICENTER":66.5379,"MEAN_ANOMALY":112.5803,"EPHEMERIS_TYPE":0,"CLASSIFICATION_TYPE":"U","NORAD_CAT_ID":68558,"ELEMENT_SET_NO":999,"REV_AT_EPOCH":406,"BSTAR":-0.0002098072,"MEAN_MOTION_DOT":-0.0004198,"MEAN_MOTION_DDOT":0},{"OBJECT_NAME":"STARLINK-37294","OBJECT_ID":"2026-070T","EPOCH":"2026-04-20T06:00:02.000160","MEAN_MOTION":15.80898553,"ECCENTRICITY":0.0001715,"INCLINATION":53.158,"RA_OF_ASC_NODE":175.9526,"ARG_OF_PERICENTER":94.4245,"MEAN_ANOMALY":88.9625,"EPHEMERIS_TYPE":0,"CLASSIFICATION_TYPE":"U","NORAD_CAT_ID":68559,"ELEMENT_SET_NO":999,"REV_AT_EPOCH":406,"BSTAR":6.8799851e-5,"MEAN_MOTION_DOT":0.00012915,"MEAN_MOTION_DDOT":0},{"OBJECT_NAME":"STARLINK-37291","OBJECT_ID":"2026-070U","EPOCH":"2026-04-20T06:00:02.000160","MEAN_MOTION":15.80895751,"ECCENTRICITY":0.00012009,"INCLINATION":53.158,"RA_OF_ASC_NODE":175.9436,"ARG_OF_PERICENTER":96.63,"MEAN_ANOMALY":91.0261,"EPHEMERIS_TYPE":0,"CLASSIFICATION_TYPE":"U","NORAD_CAT_ID":68560,"ELEMENT_SET_NO":999,"REV_AT_EPOCH":406,"BSTAR":9.2800959e-5,"MEAN_MOTION_DOT":0.00017673,"MEAN_MOTION_DDOT":0},{"OBJECT_NAME":"STARLINK-37114","OBJECT_ID":"2026-070V","EPOCH":"2026-04-20T06:00:02.000160","MEAN_MOTION":15.80899994,"ECCENTRICITY":0.00012245,"INCLINATION":53.158,"RA_OF_ASC_NODE":175.9348,"ARG_OF_PERICENTER":114.1747,"MEAN_ANOMALY":77.7583,"EPHEMERIS_TYPE":0,"CLASSIFICATION_TYPE":"U","NORAD_CAT_ID":68561,"ELEMENT_SET_NO":999,"REV_AT_EPOCH":406,"BSTAR":9.048292e-6,"MEAN_MOTION_DOT":1.089e-5,"MEAN_MOTION_DDOT":0},{"OBJECT_NAME":"STARLINK-37233","OBJECT_ID":"2026-070W","EPOCH":"2026-04-20T06:00:02.000160","MEAN_MOTION":15.80914543,"ECCENTRICITY":0.00016044,"INCLINATION":53.1583,"RA_OF_ASC_NODE":175.9169,"ARG_OF_PERICENTER":148.0475,"MEAN_ANOMALY":52.4306,"EPHEMERIS_TYPE":0,"CLASSIFICATION_TYPE":"U","NORAD_CAT_ID":68562,"ELEMENT_SET_NO":999,"REV_AT_EPOCH":406,"BSTAR":-0.00018146356,"MEAN_MOTION_DOT":-0.00036435,"MEAN_MOTION_DDOT":0},{"OBJECT_NAME":"STARLINK-36238","OBJECT_ID":"2026-070X","EPOCH":"2026-04-20T06:00:02.000160","MEAN_MOTION":15.80903378,"ECCENTRICITY":0.00015601,"INCLINATION":53.1581,"RA_OF_ASC_NODE":175.9258,"ARG_OF_PERICENTER":96.7986,"MEAN_ANOMALY":99.4042,"EPHEMERIS_TYPE":0,"CLASSIFICATION_TYPE":"U","NORAD_CAT_ID":68563,"ELEMENT_SET_NO":999,"REV_AT_EPOCH":401,"BSTAR":6.630181e-6,"MEAN_MOTION_DOT":6.1e-6,"MEAN_MOTION_DDOT":0},{"OBJECT_NAME":"STARLINK-37008","OBJECT_ID":"2026-070Y","EPOCH":"2026-04-20T06:00:02.000160","MEAN_MOTION":15.80918933,"ECCENTRICITY":0.00015502,"INCLINATION":53.1581,"RA_OF_ASC_NODE":175.9082,"ARG_OF_PERICENTER":149.6191,"MEAN_ANOMALY":55.1279,"EPHEMERIS_TYPE":0,"CLASSIFICATION_TYPE":"U","NORAD_CAT_ID":68564,"ELEMENT_SET_NO":999,"REV_AT_EPOCH":406,"BSTAR":-0.00017622138,"MEAN_MOTION_DOT":-0.00035413,"MEAN_MOTION_DDOT":0},{"OBJECT_NAME":"STARLINK-37161","OBJECT_ID":"2026-070Z","EPOCH":"2026-04-20T06:00:02.000160","MEAN_MOTION":15.80858747,"ECCENTRICITY":0.00012244,"INCLINATION":53.1581,"RA_OF_ASC_NODE":175.8992,"ARG_OF_PERICENTER":108.8924,"MEAN_ANOMALY":100.0741,"EPHEMERIS_TYPE":0,"CLASSIFICATION_TYPE":"U","NORAD_CAT_ID":68565,"ELEMENT_SET_NO":999,"REV_AT_EPOCH":406,"BSTAR":0.00083774662,"MEAN_MOTION_DOT":0.00167785,"MEAN_MOTION_DDOT":0},{"OBJECT_NAME":"STARLINK-37212","OBJECT_ID":"2026-070AA","EPOCH":"2026-04-20T06:00:02.000160","MEAN_MOTION":15.80906673,"ECCENTRICITY":0.00013488,"INCLINATION":53.1581,"RA_OF_ASC_NODE":175.89,"ARG_OF_PERICENTER":120.2303,"MEAN_ANOMALY":93.0624,"EPHEMERIS_TYPE":0,"CLASSIFICATION_TYPE":"U","NORAD_CAT_ID":68566,"ELEMENT_SET_NO":999,"REV_AT_EPOCH":406,"BSTAR":-7.1022903e-5,"MEAN_MOTION_DOT":-0.00014715,"MEAN_MOTION_DDOT":0},{"OBJECT_NAME":"STARLINK-37261","OBJECT_ID":"2026-070AB","EPOCH":"2026-04-20T06:00:02.000160","MEAN_MOTION":15.80904908,"ECCENTRICITY":0.00013541,"INCLINATION":53.1582,"RA_OF_ASC_NODE":175.8812,"ARG_OF_PERICENTER":65.8468,"MEAN_ANOMALY":151.7142,"EPHEMERIS_TYPE":0,"CLASSIFICATION_TYPE":"U","NORAD_CAT_ID":68567,"ELEMENT_SET_NO":999,"REV_AT_EPOCH":406,"BSTAR":-6.547861e-6,"MEAN_MOTION_DOT":-1.994e-5,"MEAN_MOTION_DDOT":0},{"OBJECT_NAME":"STARLINK-37283","OBJECT_ID":"2026-070AC","EPOCH":"2026-04-18T00:00:04.000320","MEAN_MOTION":15.80838078,"ECCENTRICITY":0.00010468,"INCLINATION":53.1591,"RA_OF_ASC_NODE":187.5762,"ARG_OF_PERICENTER":78.4908,"MEAN_ANOMALY":84.1358,"EPHEMERIS_TYPE":0,"CLASSIFICATION_TYPE":"U","NORAD_CAT_ID":68568,"ELEMENT_SET_NO":999,"REV_AT_EPOCH":370,"BSTAR":0.00034048775,"MEAN_MOTION_DOT":0.00066916,"MEAN_MOTION_DDOT":0},{"OBJECT_NAME":"STARLINK-37256","OBJECT_ID":"2026-070AD","EPOCH":"2026-04-18T00:00:04.000320","MEAN_MOTION":15.80856338,"ECCENTRICITY":0.00010356,"INCLINATION":53.1589,"RA_OF_ASC_NODE":187.5848,"ARG_OF_PERICENTER":93.219,"MEAN_ANOMALY":65.1294,"EPHEMERIS_TYPE":0,"CLASSIFICATION_TYPE":"U","NORAD_CAT_ID":68569,"ELEMENT_SET_NO":999,"REV_AT_EPOCH":370,"BSTAR":0.00015134513,"MEAN_MOTION_DOT":0.0002925,"MEAN_MOTION_DDOT":0},{"OBJECT_NAME":"STARLINK-37228","OBJECT_ID":"2026-070AE","EPOCH":"2026-04-18T00:00:04.000320","MEAN_MOTION":15.80833478,"ECCENTRICITY":0.00011042,"INCLINATION":53.1589,"RA_OF_ASC_NODE":187.5675,"ARG_OF_PERICENTER":76.1108,"MEAN_ANOMALY":90.7864,"EPHEMERIS_TYPE":0,"CLASSIFICATION_TYPE":"U","NORAD_CAT_ID":68570,"ELEMENT_SET_NO":999,"REV_AT_EPOCH":370,"BSTAR":0.00040917115,"MEAN_MOTION_DOT":0.00080668,"MEAN_MOTION_DDOT":0}]
